NORAD_CAT_ID,OBJECT_NAME,OBJECT_TYPE,EPOCH,MEAN_MOTION,ECCENTRICITY,INCLINATION,RA_OF_ASC_NODE,ARG_OF_PERICENTER,MEAN_ANOMALY,BSTAR,MEAN_MOTION_DOT,MEAN_MOTION_DDOT,TLE_LINE0,TLE_LINE1,TLE_LINE2,SEMIMAJOR_AXIS,PERIOD,APOGEE,PERIGEE,DECAYED
51984.0,STARLINK-3664,PAYLOAD,2024-06-28 13:40:22,15.08849066,0.000113,53.2181,298.5462,105.4101,254.7016,0.00016288,2.306e-05,0.0,0 STARLINK-3664,1 51984U 22025AE  24180.56969913  .00002306  00000-0  16288-3 0  9990,2 51984  53.2181 298.5462 0001130 105.4101 254.7016 15.08849066127598,6917.853,95.437,540.499,538.936,0.0
51984.0,STARLINK-3664,PAYLOAD,2024-06-28 15:15:44,15.08851689,0.0001037,53.2175,298.2484,94.5043,265.6068,0.00018205,2.612e-05,0.0,0 STARLINK-3664,1 51984U 22025AE  24180.63593708  .00002612  00000-0  18205-3 0  9994,2 51984  53.2175 298.2484 0001037  94.5043 265.6068 15.08851689128707,6917.845,95.437,540.427,538.992,0.0
51984.0,STARLINK-3664,PAYLOAD,2024-06-29 00:48:02,15.0886701,0.000126,53.218,296.4647,70.2795,289.8333,0.00029131,4.355e-05,0.0,0 STARLINK-3664,1 51984U 22025AE  24181.03336032  .00004355  00000-0  29131-3 0  9990,2 51984  53.2180 296.4647 0001260  70.2795 289.8333 15.08867010128761,6917.798,95.436,540.534,538.791,0.0
51984.0,STARLINK-3664,PAYLOAD,2024-06-29 11:55:47,15.08823211,0.0001346,53.219,294.3852,83.9684,276.1461,-6.8878e-05,-1.383e-05,0.0,0 STARLINK-3664,1 51984U 22025AE  24181.49708018 -.00001383  00000-0 -68878-4 0  9999,2 51984  53.2190 294.3852 0001346  83.9684 276.1461 15.08823211128834,6917.932,95.439,540.728,538.866,0.0
51984.0,STARLINK-3664,PAYLOAD,2024-06-29 13:31:10,15.08823569,0.0001346,53.2186,294.0876,82.7966,277.318,-6.6744e-05,-1.349e-05,0.0,0 STARLINK-3664,1 51984U 22025AE  24181.56332033 -.00001349  00000-0 -66744-4 0  9999,2 51984  53.2186 294.0876 0001346  82.7966 277.3180 15.08823569127748,6917.931,95.439,540.727,538.864,0.0
51984.0,STARLINK-3664,PAYLOAD,2024-06-29 16:41:56,15.08834594,9.79e-05,53.2173,293.4897,83.6679,276.4425,9.1945e-06,-1.41e-06,0.0,0 STARLINK-3664,1 51984U 22025AE  24181.69579117 -.00000141  00000-0  91945-5 0  9999,2 51984  53.2173 293.4897 0000979  83.6679 276.4425 15.08834594128868,6917.897,95.438,540.439,539.085,0.0
51984.0,STARLINK-3664,PAYLOAD,2024-06-30 00:38:51,15.08840508,9.51e-05,53.2173,292.0045,80.3713,279.7386,3.7183e-05,3.04e-06,0.0,0 STARLINK-3664,1 51984U 22025AE  24182.02698723  .00000304  00000-0  37183-4 0  9995,2 51984  53.2173 292.0045 0000951  80.3713 279.7386 15.08840508128911,6917.879,95.438,540.402,539.086,0.0
51984.0,STARLINK-3664,PAYLOAD,2024-06-30 13:21:57,15.08839594,0.0001165,53.2171,289.623,84.5862,275.5263,-0.000108,-2.006e-05,0.0,0 STARLINK-3664,1 51984U 22025AE  24182.55691522 -.00002006  00000-0 -10800-3 0  9992,2 51984  53.2171 289.6230 0001165  84.5862 275.5263 15.08839594127893,6917.882,95.438,540.553,538.941,0.0
51984.0,STARLINK-3664,PAYLOAD,2024-06-30 14:57:20,15.08838203,0.0001168,53.2173,289.3266,71.4151,288.6968,-5.9698e-05,-1.238e-05,0.0,0 STARLINK-3664,1 51984U 22025AE  24182.62315464 -.00001238  00000-0 -59698-4 0  9993,2 51984  53.2173 289.3266 0001168  71.4151 288.6968 15.08838203129008,6917.886,95.438,540.559,538.943,0.0
51984.0,STARLINK-3664,PAYLOAD,2024-07-01 00:29:38,15.08856281,0.0001194,53.2173,287.5452,77.5681,282.5444,3.1519e-05,2.14e-06,0.0,0 STARLINK-3664,1 51984U 22025AE  24183.02057904  .00000214  00000-0  31519-4 0  9993,2 51984  53.2173 287.5452 0001194  77.5681 282.5444 15.08856281129063,6917.831,95.437,540.522,538.87,0.0
51984.0,STARLINK-3664,PAYLOAD,2024-07-01 13:12:44,15.08825601,0.0001258,53.2157,285.1661,80.5888,279.5246,0.00016396,2.322e-05,0.0,0 STARLINK-3664,1 51984U 22025AE  24183.55051615  .00002322  00000-0  16396-3 0  9991,2 51984  53.2157 285.1661 0001258  80.5888 279.5246 15.08825601129142,6917.924,95.438,540.66,538.919,0.0
51984.0,STARLINK-3664,PAYLOAD,2024-07-01 16:23:30,15.08836771,0.0001014,53.2173,284.5684,97.3395,262.7713,0.00016443,2.33e-05,0.0,0 STARLINK-3664,1 51984U 22025AE  24183.68298892  .00002330  00000-0  16443-3 0  9997,2 51984  53.2173 284.5684 0001014  97.3395 262.7713 15.08836771129162,6917.89,95.438,540.457,539.054,0.0
51984.0,STARLINK-3664,PAYLOAD,2024-07-02 00:20:25,15.08845955,9.66e-05,53.2164,283.0835,80.8413,279.2689,0.00013897,1.925e-05,0.0,0 STARLINK-3664,1 51984U 22025AE  24184.01418351  .00001925  00000-0  13897-3 0  9998,2 51984  53.2164 283.0835 0000966  80.8413 279.2689 15.08845955129212,6917.862,95.437,540.395,539.059,0.0
51984.0,STARLINK-3664,PAYLOAD,2024-07-02 13:03:31,15.08836777,0.00011,53.2168,280.7049,95.7872,264.3245,-2.8497e-05,-7.41e-06,0.0,0 STARLINK-3664,1 51984U 22025AE  24184.54411764 -.00000741  00000-0 -28497-4 0  9997,2 51984  53.2168 280.7049 0001100  95.7872 264.3245 15.08836777129295,6917.89,95.438,540.516,538.994,0.0
51984.0,STARLINK-3664,PAYLOAD,2024-07-02 16:14:17,15.08840405,9.68e-05,53.2167,280.108,97.9094,262.2008,6.5285e-06,-1.84e-06,0.0,0 STARLINK-3664,1 51984U 22025AE  24184.67659408 -.00000184  00000-0  65285-5 0  9997,2 51984  53.2167 280.1080 0000968  97.9094 262.2008 15.08840405128212,6917.879,95.438,540.414,539.075,0.0
51984.0,STARLINK-3664,PAYLOAD,2024-07-03 12:54:18,15.08838605,0.0001071,53.2164,276.243,87.2662,272.8453,5.4119e-05,5.74e-06,0.0,0 STARLINK-3664,1 51984U 22025AE  24185.53771592  .00000574  00000-0  54119-4 0  9997,2 51984  53.2164 276.2430 0001071  87.2662 272.8453 15.08838605128347,6917.885,95.438,540.491,539.009,0.0
51984.0,STARLINK-3664,PAYLOAD,2024-07-04 12:45:06,15.08834514,0.000108,53.2169,271.7831,88.4049,271.7067,6.1245e-05,6.87e-06,0.0,0 STARLINK-3664,1 51984U 22025AE  24186.53131985  .00000687  00000-0  61245-4 0  9997,2 51984  53.2169 271.7831 0001080  88.4049 271.7067 15.08834514129591,6917.897,95.438,540.509,539.015,0.0
51984.0,STARLINK-3664,PAYLOAD,2024-07-04 22:17:24,15.08846448,0.0001112,53.2174,269.999,87.8711,272.2409,0.00012486,1.7e-05,0.0,0 STARLINK-3664,1 51984U 22025AE  24186.92875076  .00001700  00000-0  12486-3 0  9995,2 51984  53.2174 269.9990 0001112  87.8711 272.2409 15.08846448128557,6917.861,95.437,540.495,538.956,0.0
51984.0,STARLINK-3664,PAYLOAD,2024-07-05 12:35:53,15.08835951,0.0001238,53.218,267.327,99.8761,260.2371,7.8337e-05,9.59e-06,0.0,0 STARLINK-3664,1 51984U 22025AE  24187.52491963  .00000959  00000-0  78337-4 0  9994,2 51984  53.2180 267.3270 0001238  99.8761 260.2371 15.08835951128646,6917.893,95.438,540.614,538.901,0.0
51984.0,STARLINK-3664,PAYLOAD,2024-07-05 22:08:10,15.08851956,0.000135,53.2186,265.5411,91.4657,268.649,0.00015565,2.191e-05,0.0,0 STARLINK-3664,1 51984U 22025AE  24187.92234623  .00002191  00000-0  15565-3 0  9999,2 51984  53.2186 265.5411 0001350  91.4657 268.6490 15.08851956128700,6917.844,95.437,540.643,538.775,0.0
51984.0,STARLINK-3664,PAYLOAD,2024-07-06 12:26:40,15.0883018,0.0001402,53.2177,262.8644,90.8264,269.2888,1.7633e-05,-7e-08,0.0,0 STARLINK-3664,1 51984U 22025AE  24188.51852600 -.00000007  00000-0  17633-4 0  9990,2 51984  53.2177 262.8644 0001402  90.8264 269.2888 15.08830180129898,6917.91,95.438,540.745,538.806,0.0
51984.0,STARLINK-3664,PAYLOAD,2024-07-06 14:02:03,15.08831668,0.0001393,53.2175,262.5665,86.9635,273.1516,2.7029e-05,1.42e-06,0.0,0 STARLINK-3664,1 51984U 22025AE  24188.58476501  .00000142  00000-0  27029-4 0  9998,2 51984  53.2175 262.5665 0001393  86.9635 273.1516 15.08831668128807,6917.906,95.438,540.735,538.807,0.0
51984.0,STARLINK-3664,PAYLOAD,2024-07-06 21:58:58,15.08841141,0.0001336,53.2173,261.079,88.502,271.6125,1.9863e-05,2.8e-07,0.0,0 STARLINK-3664,1 51984U 22025AE  24188.91595945  .00000028  00000-0  19863-4 0  9999,2 51984  53.2173 261.0790 0001336  88.5020 271.6125 15.08841141128852,6917.877,95.437,540.666,538.818,0.0
51984.0,STARLINK-3664,PAYLOAD,2024-07-07 04:20:31,15.0883767,0.0001377,53.2174,259.892,91.234,268.881,7.8298e-05,9.58e-06,0.0,0 STARLINK-3664,1 51984U 22025AE  24189.18092090  .00000958  00000-0  78298-4 0  9991,2 51984  53.2174 259.8920 0001377  91.2340 268.8810 15.08837670129991,6917.888,95.438,540.705,538.8,0.0
51984.0,STARLINK-3664,PAYLOAD,2024-07-07 10:42:04,15.08838505,0.0001368,53.2171,258.7009,84.6513,275.4635,4.7595e-05,4.7e-06,0.0,0 STARLINK-3664,1 51984U 22025AE  24189.44588272  .00000470  00000-0  47595-4 0  9997,2 51984  53.2171 258.7009 0001368  84.6513 275.4635 15.08838505128932,6917.885,95.438,540.696,538.804,0.0
51984.0,STARLINK-3664,PAYLOAD,2024-07-08 10:32:50,15.08844254,0.000141,53.2158,254.24,86.0111,274.1043,0.00020556,2.985e-05,0.0,0 STARLINK-3664,1 51984U 22025AE  24190.43947835  .00002985  00000-0  20556-3 0  9992,2 51984  53.2158 254.2400 0001410  86.0111 274.1043 15.08844254130188,6917.867,95.437,540.708,538.757,0.0
51984.0,STARLINK-3664,PAYLOAD,2024-07-08 21:40:32,15.08849917,0.0001391,53.2155,252.1582,84.8634,275.2517,0.00023632,3.476e-05,0.0,0 STARLINK-3664,1 51984U 22025AE  24190.90315473  .00003476  00000-0  23632-3 0  9995,2 51984  53.2155 252.1582 0001391  84.8634 275.2517 15.08849917129151,6917.85,95.437,540.677,538.753,0.0
51984.0,STARLINK-3664,PAYLOAD,2024-07-09 10:23:38,15.08837793,0.0001368,53.2178,249.7776,106.6143,253.4999,0.00020955,3.048e-05,0.0,0 STARLINK-3664,1 51984U 22025AE  24191.43308047  .00003048  00000-0  20955-3 0  9993,2 51984  53.2178 249.7776 0001368 106.6143 253.4999 15.08837793130338,6917.887,95.438,540.699,538.806,0.0
51984.0,STARLINK-3664,PAYLOAD,2024-07-09 13:34:24,15.08840462,0.0001539,53.2161,249.1841,94.3429,265.7739,2.6861e-05,1.4e-06,0.0,0 STARLINK-3664,1 51984U 22025AE  24191.56555943  .00000140  00000-0  26861-4 0  9999,2 51984  53.2161 249.1841 0001539  94.3429 265.7739 15.08840462129251,6917.879,95.438,540.809,538.679,0.0
51984.0,STARLINK-3664,PAYLOAD,2024-07-10 10:14:25,15.08839676,0.0001408,53.2157,245.3179,92.2203,267.895,1.2713e-05,-8.6e-07,0.0,0 STARLINK-3664,1 51984U 22025AE  24192.42667956 -.00000086  00000-0  12713-4 0  9994,2 51984  53.2157 245.3179 0001408  92.2203 267.8950 15.08839676129387,6917.881,95.438,540.72,538.772,0.0
